STARLINK-30494          
1 57970U 23151G   26068.36049035 -.00001272  00000+0 -35691-4 0  9993
2 57970  43.0027 192.4566 0001155 241.5536 118.5200 15.28417441137406
STARLINK-31585          
1 59608U 24080H   26068.26676644 -.00007743  00000+0 -27197-3 0  9996
2 59608  43.0022  36.3479 0003717 254.4766 105.5675 15.27590267104520
